KUIPER-00165            
1 65778U 25217S   26001.33335648  .00050087  00000+0  44731-2 0  9994
2 65778  51.8949 334.3011 0006641 107.2791 223.7783 14.95420970  5020
KUIPER-00166            
1 65779U 25217T   26001.33335648 -.00425232  00000+0 -12973-1 0  9997
2 65779  51.8714 329.2340 0005310  72.6096 318.3234 15.35116210  5772
KUIPER-00167            
1 65780U 25217U   26001.33335648  .00030065  00000+0  41169-2 0  9993
2 65780  51.8973 343.3930 0001057 108.8963 349.1264 14.78237421  2958
KUIPER-00168            
1 65781U 25217V   26001.33335648 -.00263111  00000+0 -12565-1 0  9993
2 65781  51.8832 329.8493 0002297  94.9843  22.7560 15.19764725  2361
KUIPER-00169            
1 65782U 25217W   26001.33335648 -.00524943  00000+0 -40862-1 0  9998
2 65782  51.8910 332.3681 0004985  91.7758 245.0177 15.03154550  5092
KUIPER-00170            
1 65783U 25217X   26001.33335648  .00029479  00000+0  29178-2 0  9999
2 65783  51.9143 336.3175 0007957  80.1631 110.0266 14.91600480  5069
KUIPER-00171            
1 65784U 25217Y   26001.25521426  .00272471  00000+0  18264-2 0  9998
2 65784  51.8547 316.8389 0011283  91.2776 268.9519 15.73814507 15228
KUIPER-00172            
1 65785U 25217Z   26001.21686256  .00028435  00000+0  13097-2 0  9996
2 65785  51.8791 331.4146 0005482  94.5399 265.6206 15.20062723 15027
KUIPER-00173            
1 65786U 25217AA  26001.33335648 -.01568000  00000+0 -11823+0 0  9998
2 65786  51.8873 332.5323 0000848 146.8728 356.4049 15.05131118  3171
KUIPER-00174            
1 65787U 25217AB  26001.33335648 -.00951882  00000+0 -49361-1 0  9992
2 65787  51.8825 330.0366 0001427  77.5189 245.9973 15.18462259  5777
KUIPER-00176            
1 65788U 25217AC  26001.33335648  .00021149  00000+0  27525-2 0  9994
2 65788  51.9003 340.9588 0000779 108.8583 127.8778 14.80569709  3065
KUIPER-00101            
1 65947U 25228A   26001.00003471 -.00023494  00000+0 -30630-2 0  9991
2 65947  51.8988 299.9148 0000312  40.1898 157.8609 14.79941088  5170
KUIPER-00113            
1 65948U 25228B   26001.33335648 -.01095700  00000+0 -13349+0 0  9997
2 65948  51.9003 293.6537 0005660  90.1061 136.5628 14.85885911  4703
KUIPER-00117            
1 65949U 25228C   26001.33335648  .00006743  00000+0  87914-3 0  9997
2 65949  51.8985 295.9861 0001156  76.2166  71.4504 14.81518437  3895
KUIPER-00121            
1 65950U 25228D   26001.33335648 -.01045609  00000+0 -11506+0 0  9996
2 65950  51.8966 291.0379 0004305 119.4540 137.0153 14.90341673  2649
KUIPER-00122            
1 65951U 25228E   26001.19652369  .00009319  00000+0  12477-2 0  9999
2 65951  51.9000 301.5335 0001234  54.6970 305.4108 14.80000448 13200
KUIPER-00123            
1 65952U 25228F   26001.23030575  .00009059  00000+0  12152-2 0  9995
2 65952  51.9003 301.4077 0001234  98.6187 261.4916 14.79951254 13200
KUIPER-00124            
1 65953U 25228G   26001.33335648  .00008233  00000+0  10807-2 0  9994
2 65953  51.8988 293.4517 0000354  28.2326 112.3274 14.80977487  5713
KUIPER-00125            
1 65954U 25228H   26001.33335648 -.01165204  00000+0 -37382-1 0  9996
2 65954  51.8790 285.7873 0005473 104.2871 181.7342 15.34745015  5481
KUIPER-00126            
1 65955U 25228J   26001.19927480  .00006570  00000+0  88997-3 0  9999
2 65955  51.9004 299.0534 0000586  76.3983 283.7045 14.79932015 13237
KUIPER-00127            
1 65956U 25228K   25365.07826342  .00020098  00000+0  17026-2 0  9999
2 65956  51.8953 300.3017 0005939 122.3351 237.8195 14.97947708 13129
KUIPER-00128            
1 65957U 25228L   26001.33335648 -.00030043  00000+0 -31514-2 0  9992
2 65957  51.8973 291.3505 0003069 108.1944 198.5895 14.88982846  4879
KUIPER-00129            
1 65958U 25228M   26001.33335648 -.00143996  00000+0 -94638-2 0  9991
2 65958  51.8975 287.9354 0001758  44.0572 288.0209 15.07829162  5859
KUIPER-00130            
1 65959U 25228N   26001.33335648 -.01058287  00000+0 -92783-1 0  9999
2 65959  51.8915 289.4315 0006380 107.1535 211.3399 14.99217402  5288
KUIPER-00134            
1 65960U 25228P   26001.17697013  .00064110  00000+0  17790-2 0  9995
2 65960  51.8785 286.8210 0007255  84.7753 275.4061 15.36286974 13406
KUIPER-00135            
1 65961U 25228Q   26001.33335648 -.01302035  00000+0 -11319+0 0  9999
2 65961  51.8953 289.7033 0005510 114.5976 327.2088 14.99687059  2871
KUIPER-00136            
1 65962U 25228R   26001.33335648 -.01676756  00000+0 -11836+0 0  9998
2 65962  51.8895 287.9972 0005497 124.2050  87.9451 15.07735664  3044
KUIPER-00137            
1 65963U 25228S   26001.33335648 -.01112557  00000+0 -57836-1 0  9995
2 65963  51.8872 286.8775 0005721  97.0008  29.3393 15.18324588  3573
KUIPER-00138            
1 65964U 25228T   26001.33335648 -.01046526  00000+0 -42104-1 0  9990
2 65964  51.8829 286.3097 0007798 100.1811 294.3722 15.27182982  5024
KUIPER-00140            
1 65965U 25228U   26001.33335648 -.01265676  00000+0 -67764-1 0  9999
2 65965  51.8855 287.1990 0006637  92.8182 184.1345 15.17678391  5361
KUIPER-00141            
1 65966U 25228V   26001.33335648  .00042021  00000+0  13462-2 0  9991
2 65966  51.8792 285.8221 0004126  98.5490 157.7503 15.31951803  4550
KUIPER-00146            
1 65967U 25228W   26001.33335648 -.00962212  00000+0 -37701-1 0  9998
2 65967  51.8822 286.2955 0006768 101.1456 280.5613 15.27831432  5043
KUIPER-00149            
1 65968U 25228X   26001.15555923  .00045340  00000+0  12503-2 0  9995
2 65968  51.8789 286.6925 0006012  86.6161 273.5513 15.36644413 13400
KUIPER-00154            
1 65969U 25228Y   26001.16069423  .00031553  00000+0  87899-3 0  9994
2 65969  51.8783 286.7215 0006407  80.6374 279.5337 15.36497484 13400
KUIPER-00157            
1 65970U 25228Z   26001.17166745  .00052088  00000+0  14182-2 0  9992
2 65970  51.8810 286.8045 0007064 104.0737 256.1035 15.36970854 13402
KUIPER-00144            
1 67133U 25301A   26001.29622732  .00379552  00000+0  10058-1 0  9998
2 67133  51.8703  30.8240 0004352 160.4785 199.6369 15.36278038  3377
KUIPER-00164            
1 67134U 25301B   26001.28900871  .00023498  00000+0  66181-3 0  9996
2 67134  51.8725  30.7774 0003051 121.4158 238.7127 15.36331007  3552
KUIPER-00175            
1 67135U 25301C   26001.28398845  .00046260  00000+0  12666-2 0  9999
2 67135  51.8745  30.7395 0002618  74.7877 285.3399 15.36867431  3442
KUIPER-00179            
1 67136U 25301D   26001.28739965  .00041313  00000+0  11486-2 0  9995
2 67136  51.8739  30.7636 0003359 100.9909 259.1455 15.36443482  3555
KUIPER-00181            
1 67137U 25301E   26001.30723608  .00042579  00000+0  12514-2 0  9994
2 67137  51.8643  30.8921 0010474 162.5676 197.5671 15.34642818  3534
KUIPER-00183            
1 67138U 25301F   26001.31055252  .00044543  00000+0  13183-2 0  9995
2 67138  51.8620  30.9104 0011092 165.2846 194.8464 15.34396191  3541
KUIPER-00184            
1 67139U 25301G   26001.24131819  .00028820  00000+0  85131-3 0  9995
2 67139  51.8629  31.1996 0009125 160.7395 199.3937 15.34687589  3646
KUIPER-00186            
1 67140U 25301H   26001.30050242  .00025763  00000+0  74665-3 0  9997
2 67140  51.8684  30.8510 0007797 148.4226 211.7229 15.35360537  3371
KUIPER-00187            
1 67141U 25301J   26001.29219318  .00019685  00000+0  56001-3 0  9997
2 67141  51.8713  30.7980 0004823 135.0443 225.0935 15.36126100  3374
KUIPER-00188            
1 67142U 25301K   26001.30149320  .00031179  00000+0  90283-3 0  9997
2 67142  51.8696  30.8578 0007562 152.4992 207.6395 15.35285563  3378
KUIPER-00191            
1 67143U 25301L   26001.29924369  .00024631  00000+0  71321-3 0  9997
2 67143  51.8674  30.8427 0006667 148.1105 212.0286 15.35420539  3408
KUIPER-00196            
1 67144U 25301M   26001.29025546  .00023965  00000+0  67712-3 0  9995
2 67144  51.8730  30.7842 0003831 115.0774 245.0611 15.36217973  3378
KUIPER-00204            
1 67145U 25301N   26001.28470457  .00028848  00000+0  79742-3 0  9991
2 67145  51.8745  30.7423 0002257  88.2524 271.8721 15.36801151  3483
KUIPER-00210            
1 67146U 25301P   26001.30955569  .00040645  00000+0  12006-2 0  9995
2 67146  51.8608  30.9037 0010503 167.7378 192.3865 15.34504342  3541
KUIPER-00221            
1 67147U 25301Q   26001.29339160  .00041851  00000+0  11802-2 0  9990
2 67147  51.8720  30.8049 0005220 132.3484 227.7946 15.35986092  3376
KUIPER-00232            
1 67148U 25301R   26001.28304368  .00044884  00000+0  12279-2 0  9990
2 67148  51.8745  30.7353 0002198  71.3484 288.7741 15.36910152  3379
KUIPER-00241            
1 67149U 25301S   26001.28786931  .00024914  00000+0  69844-3 0  9994
2 67149  51.8743  30.7656 0002765 111.3865 248.7417 15.36442243  3706
KUIPER-00245            
1 67150U 25301T   26001.29420125  .00025914  00000+0  73789-3 0  9991
2 67150  51.8725  30.8102 0005120 138.2195 221.9183 15.35925781  3375
KUIPER-00246            
1 67151U 25301U   26001.22592071  .00039514  00000+0  11079-2 0  9999
2 67151  51.8737  31.1020 0004121 130.6513 229.4832 15.36197987  3387
KUIPER-00247            
1 67152U 25301V   26001.31142348  .00028213  00000+0  84260-3 0  9995
2 67152  51.8636  30.9182 0011065 171.1413 188.9770 15.34333369  3379
KUIPER-00248            
1 67153U 25301W   26001.30437811  .00039041  00000+0  11354-2 0  9991
2 67153  51.8680  30.8757 0008883 158.7792 201.3564 15.35030752  3542
KUIPER-00249            
1 67154U 25301X   26001.30252116  .00031474  00000+0  91488-3 0  9994
2 67154  51.8653  30.8624 0008264 155.7754 204.3622 15.35155277  3373
KUIPER-00250            
1 67155U 25301Y   26001.29725175  .00031576  00000+0  90236-3 0  9996
2 67155  51.8714  30.8305 0006434 145.3773 214.7633 15.35699759  3400
KUIPER-00251            
1 67156U 25301Z   26001.30340638  .00029892  00000+0  87025-3 0  9996
2 67156  51.8664  30.8690 0008960 154.1537 205.9898 15.35127617  3565
